{"type": "FeatureCollection", "features": [ {"type": "Feature", "properties": {"norad_id": 37483, "name": "COSMOS 2251 DEB", "group": "cosmos-2251-debris", "lat": 73.72773400298055, "lon": -143.105156832059, "alt_km": 784.170829013482, "timestamp": "2025-12-26T22:28:06.183311+00:00", "meta": {"OBJECT_NAME": "COSMOS 2251 DEB", "OBJECT_ID": "1993-036BLL", "EPOCH": "2025-12-24T01:50:58.185312", "MEAN_MOTION": 14.43572585, "ECCENTRICITY": 0.00936557, "INCLINATION": 73.9741, "RA_OF_ASC_NODE": 122.1834, "ARG_OF_PERICENTER": 326.1341, "MEAN_ANOMALY": 33.3856, "EPHEMERIS_TYPE": 0, "CLASSIFICATION_TYPE": "U", "NORAD_CAT_ID": 37483, "ELEMENT_SET_NO": 999, "REV_AT_EPOCH": 65443, "BSTAR": 0.00020999686, "MEAN_MOTION_DOT": 7.21e-06, "MEAN_MOTION_DDOT": 0}, "tle": {"line1": "1 37483U 93036BLL 25358.07706233  .00000721  00000+0  21000-3 0  9992", "line2": "2 37483  73.9741 122.1834 0093655 326.1341  33.3856 14.43572585654431"}}, "geometry": {"type": "Point", "coordinates": [-143.105156832059, 73.72773400298055]}}, {"type": "Feature", "properties": {"norad_id": 37484, "name": "COSMOS 2251 DEB", "group": "cosmos-2251-debris", "lat": -65.9767620005556, "lon": 42.43183359341901, "alt_km": 736.9523512059613, "timestamp": "2025-12-26T22:28:06.183321+00:00", "meta": {"OBJECT_NAME": "COSMOS 2251 DEB", "OBJECT_ID": "1993-036BLM", "EPOCH": "2025-12-23T22:01:02.179776", "MEAN_MOTION": 14.41832075, "ECCENTRICITY": 0.0039304, "INCLINATION": 73.821, "RA_OF_ASC_NODE": 187.4539, "ARG_OF_PERICENTER": 220.8433, "MEAN_ANOMALY": 207.6544, "EPHEMERIS_TYPE": 0, "CLASSIFICATION_TYPE": "U", "NORAD_CAT_ID": 37484, "ELEMENT_SET_NO": 999, "REV_AT_EPOCH": 65540, "BSTAR": 0.00075175, "MEAN_MOTION_DOT": 2.453e-05, "MEAN_MOTION_DDOT": 0}, "tle": {"line1": "1 37484U 93036BLM 25357.91738634  .00002453  00000+0  75175-3 0  9991", "line2": "2 37484  73.8210 187.4539 0039304 220.8433 207.6544 14.41832075655400"}}, "geometry": {"type": "Point", "coordinates": [42.43183359341901, -65.9767620005556]}}, {"type": "Feature", "properties": {"norad_id": 37486, "name": "COSMOS 2251 DEB", "group": "cosmos-2251-debris", "lat": 38.8204668847951, "lon": -104.69196577246127, "alt_km": 1010.822989265268, "timestamp": "2025-12-26T22:28:06.183331+00:00", "meta": {"OBJECT_NAME": "COSMOS 2251 DEB", "OBJECT_ID": "1993-036BLP", "EPOCH": "2025-12-25T00:47:37.338720", "MEAN_MOTION": 14.13431538, "ECCENTRICITY": 0.02312079, "INCLINATION": 73.6929, "RA_OF_ASC_NODE": 92.3714, "ARG_OF_PERICENTER": 318.5034, "MEAN_ANOMALY": 220.7861, "EPHEMERIS_TYPE": 0, "CLASSIFICATION_TYPE": "U", "NORAD_CAT_ID": 37486, "ELEMENT_SET_NO": 999, "REV_AT_EPOCH": 63543, "BSTAR": 0.0021109743, "MEAN_MOTION_DOT": 5.095e-05, "MEAN_MOTION_DDOT": 0}, "tle": {"line1": "1 37486U 93036BLP 25359.03307105  .00005095  00000+0  21110-2 0  9997", "line2": "2 37486  73.6929  92.3714 0231207 318.5034 220.7861 14.13431538635431"}}, "geometry": {"type": "Point", "coordinates": [-104.69196577246127, 38.8204668847951]}}, {"type": "Feature", "properties": {"norad_id": 37487, "name": "COSMOS 2251 DEB", "group": "cosmos-2251-debris", "lat": 71.276683732189, "lon": -74.59613925560082, "alt_km": 620.6555190530325, "timestamp": "2025-12-26T22:28:06.183342+00:00", "meta": {"OBJECT_NAME": "COSMOS 2251 DEB", "OBJECT_ID": "1993-036BLQ", "EPOCH": "2025-12-24T05:11:49.367040", "MEAN_MOTION": 14.81463002, "ECCENTRICITY": 0.00266054, "INCLINATION": 73.9017, "RA_OF_ASC_NODE": 169.2533, "ARG_OF_PERICENTER": 4.3349, "MEAN_ANOMALY": 355.8052, "EPHEMERIS_TYPE": 0, "CLASSIFICATION_TYPE": "U", "NORAD_CAT_ID": 37487, "ELEMENT_SET_NO": 999, "REV_AT_EPOCH": 81415, "BSTAR": 0.0032114426, "MEAN_MOTION_DOT": 0.00025372, "MEAN_MOTION_DDOT": 0}, "tle": {"line1": "1 37487U 93036BLQ 25358.21654360  .00025372  00000+0  32114-2 0  9991", "line2": "2 37487  73.9017 169.2533 0026605   4.3349 355.8052 14.81463002814155"}}, "geometry": {"type": "Point", "coordinates": [-74.59613925560082, 71.276683732189]}}, {"type": "Feature", "properties": {"norad_id": 37491, "name": "COSMOS 2251 DEB", "group": "cosmos-2251-debris", "lat": -24.44854202125092, "lon": 77.83395287538949, "alt_km": 793.3744085970256, "timestamp": "2025-12-26T22:28:06.183352+00:00", "meta": {"OBJECT_NAME": "COSMOS 2251 DEB", "OBJECT_ID": "1993-036BLU", "EPOCH": "2025-12-25T00:03:30.917952", "MEAN_MOTION": 13.7531974, "ECCENTRICITY": 0.03163036, "INCLINATION": 73.9051, "RA_OF_ASC_NODE": 253.5322, "ARG_OF_PERICENTER": 244.3669, "MEAN_ANOMALY": 112.4464, "EPHEMERIS_TYPE": 0, "CLASSIFICATION_TYPE": "U", "NORAD_CAT_ID": 37491, "ELEMENT_SET_NO": 999, "REV_AT_EPOCH": 55915, "BSTAR": 0.00078980531, "MEAN_MOTION_DOT": 1.066e-05, "MEAN_MOTION_DDOT": 0}, "tle": {"line1": "1 37491U 93036BLU 25359.00244118  .00001066  00000+0  78981-3 0  9997", "line2": "2 37491  73.9051 253.5322 0316303 244.3669 112.4464 13.75319740559150"}}, "geometry": {"type": "Point", "coordinates": [77.83395287538949, -24.44854202125092]}}, {"type": "Feature", "properties": {"norad_id": 37498, "name": "COSMOS 2251 DEB", "group": "cosmos-2251-debris", "lat": -5.630546733338083, "lon": 155.4024400643725, "alt_km": 718.9381671385754, "timestamp": "2025-12-26T22:28:06.183362+00:00", "meta": {"OBJECT_NAME": "COSMOS 2251 DEB", "OBJECT_ID": "1993-036BMB", "EPOCH": "2025-12-26T04:20:30.755328", "MEAN_MOTION": 14.54866215, "ECCENTRICITY": 0.0011817, "INCLINATION": 74.0361, "RA_OF_ASC_NODE": 158.4484, "ARG_OF_PERICENTER": 221.8173, "MEAN_ANOMALY": 138.2088, "EPHEMERIS_TYPE": 0, "CLASSIFICATION_TYPE": "U", "NORAD_CAT_ID": 37498, "ELEMENT_SET_NO": 999, "REV_AT_EPOCH": 65550, "BSTAR": 0.00091877, "MEAN_MOTION_DOT": 3.923e-05, "MEAN_MOTION_DDOT": 0}, "tle": {"line1": "1 37498U 93036BMB 25360.18091152  .00003923  00000+0  91877-3 0  9996", "line2": "2 37498  74.0361 158.4484 0011817 221.8173 138.2088 14.54866215655503"}}, "geometry": {"type": "Point", "coordinates": [155.4024400643725, -5.630546733338083]}}, {"type": "Feature", "properties": {"norad_id": 37499, "name": "COSMOS 2251 DEB", "group": "cosmos-2251-debris", "lat": -57.41743647773804, "lon": 142.80520396229906, "alt_km": 795.8094488756196, "timestamp": "2025-12-26T22:28:06.183372+00:00", "meta": {"OBJECT_NAME": "COSMOS 2251 DEB", "OBJECT_ID": "1993-036BMC", "EPOCH": "2025-12-25T13:32:33.605376", "MEAN_MOTION": 14.34354595, "ECCENTRICITY": 0.0027475, "INCLINATION": 74.0386, "RA_OF_ASC_NODE": 298.7117, "ARG_OF_PERICENTER": 11.2548, "MEAN_ANOMALY": 348.9212, "EPHEMERIS_TYPE": 0, "CLASSIFICATION_TYPE": "U", "NORAD_CAT_ID": 37499, "ELEMENT_SET_NO": 999, "REV_AT_EPOCH": 85333, "BSTAR": 0.00018715, "MEAN_MOTION_DOT": 5.02e-06, "MEAN_MOTION_DDOT": 0}, "tle": {"line1": "1 37499U 93036BMC 25359.56427784  .00000502  00000+0  18715-3 0  9991", "line2": "2 37499  74.0386 298.7117 0027475  11.2548 348.9212 14.34354595853337"}}, "geometry": {"type": "Point", "coordinates": [142.80520396229906, -57.41743647773804]}}, {"type": "Feature", "properties": {"norad_id": 37528, "name": "COSMOS 2251 DEB", "group": "cosmos-2251-debris", "lat": 34.57650474416419, "lon": -95.91890327165865, "alt_km": 723.3192204536726, "timestamp": "2025-12-26T22:28:06.183382+00:00", "meta": {"OBJECT_NAME": "COSMOS 2251 DEB", "OBJECT_ID": "1993-036BNH", "EPOCH": "2025-12-25T12:42:07.093728", "MEAN_MOTION": 14.50565382, "ECCENTRICITY": 0.0021139, "INCLINATION": 74.0377, "RA_OF_ASC_NODE": 98.1019, "ARG_OF_PERICENTER": 245.0707, "MEAN_ANOMALY": 114.8257, "EPHEMERIS_TYPE": 0, "CLASSIFICATION_TYPE": "U", "NORAD_CAT_ID": 37528, "ELEMENT_SET_NO": 999, "REV_AT_EPOCH": 86116, "BSTAR": 0.00049222, "MEAN_MOTION_DOT": 1.907e-05, "MEAN_MOTION_DDOT": 0}, "tle": {"line1": "1 37528U 93036BNH 25359.52924877  .00001907  00000+0  49222-3 0  9992", "line2": "2 37528  74.0377  98.1019 0021139 245.0707 114.8257 14.50565382861163"}}, "geometry": {"type": "Point", "coordinates": [-95.91890327165865, 34.57650474416419]}}, {"type": "Feature", "properties": {"norad_id": 37530, "name": "COSMOS 2251 DEB", "group": "cosmos-2251-debris", "lat": -43.85123471979066, "lon": -68.3179043061166, "alt_km": 771.2245015891012, "timestamp": "2025-12-26T22:28:06.183393+00:00", "meta": {"OBJECT_NAME": "COSMOS 2251 DEB", "OBJECT_ID": "1993-036BNK", "EPOCH": "2025-12-26T15:07:05.651328", "MEAN_MOTION": 14.34521446, "ECCENTRICITY": 0.0026474, "INCLINATION": 74.037, "RA_OF_ASC_NODE": 308.2034, "ARG_OF_PERICENTER": 6.4015, "MEAN_ANOMALY": 166.8607, "EPHEMERIS_TYPE": 0, "CLASSIFICATION_TYPE": "U", "NORAD_CAT_ID": 37530, "ELEMENT_SET_NO": 999, "REV_AT_EPOCH": 85431, "BSTAR": 0.00025818, "MEAN_MOTION_DOT": 7.05e-06, "MEAN_MOTION_DDOT": 0}, "tle": {"line1": "1 37530U 93036BNK 25360.62992652  .00000705  00000+0  25818-3 0  9994", "line2": "2 37530  74.0370 308.2034 0026474   6.4015 166.8607 14.34521446854319"}}, "geometry": {"type": "Point", "coordinates": [-68.3179043061166, -43.85123471979066]}}, {"type": "Feature", "properties": {"norad_id": 37532, "name": "COSMOS 2251 DEB", "group": "cosmos-2251-debris", "lat": 40.05643121905531, "lon": -4.5036380900176285, "alt_km": 757.0811070116979, "timestamp": "2025-12-26T22:28:06.183403+00:00", "meta": {"OBJECT_NAME": "COSMOS 2251 DEB", "OBJECT_ID": "1993-036BNM", "EPOCH": "2025-12-24T19:59:09.008160", "MEAN_MOTION": 14.42423835, "ECCENTRICITY": 0.00162225, "INCLINATION": 74.0486, "RA_OF_ASC_NODE": 193.3082, "ARG_OF_PERICENTER": 292.8067, "MEAN_ANOMALY": 87.0164, "EPHEMERIS_TYPE": 0, "CLASSIFICATION_TYPE": "U", "NORAD_CAT_ID": 37532, "ELEMENT_SET_NO": 999, "REV_AT_EPOCH": 85090, "BSTAR": 0.00019035251, "MEAN_MOTION_DOT": 6.04e-06, "MEAN_MOTION_DDOT": 0}, "tle": {"line1": "1 37532U 93036BNM 25358.83274315  .00000604  00000+0  19035-3 0  9997", "line2": "2 37532  74.0486 193.3082 0016222 292.8067  87.0164 14.42423835850908"}}, "geometry": {"type": "Point", "coordinates": [-4.5036380900176285, 40.05643121905531]}}]}